ION SCV-004             
1 50993U 22002K   26068.68892644  .00006538  00000+0  23198-3 0  9998
2 50993  97.2961 128.2294 0007216   1.6783 358.4480 15.29369331230088
STARLINK-31817          
1 59731U 24090B   26068.30078418  .00000038  00000+0  10898-4 0  9993
2 59731  43.0005 185.4383 0000381 165.4918 194.5945 15.27580929103387
