[{"OBJECT_NAME":"ION SCV-004","OBJECT_ID":"2022-002K","EPOCH":"2026-03-09T16:32:03.244416","MEAN_MOTION":15.29369331,"ECCENTRICITY":0.00072157,"INCLINATION":97.2961,"RA_OF_ASC_NODE":128.2294,"ARG_OF_PERICENTER":1.6783,"MEAN_ANOMALY":358.448,"EPHEMERIS_TYPE":0,"CLASSIFICATION_TYPE":"U","NORAD_CAT_ID":50993,"ELEMENT_SET_NO":999,"REV_AT_EPOCH":23008,"BSTAR":0.00023198467,"MEAN_MOTION_DOT":6.538e-5,"MEAN_MOTION_DDOT":0},{"OBJECT_NAME":"STARLINK-31817","OBJECT_ID":"2024-090B","EPOCH":"2026-03-09T07:13:07.753152","MEAN_MOTION":15.27580929,"ECCENTRICITY":3.814e-5,"INCLINATION":43.0005,"RA_OF_ASC_NODE":185.4383,"ARG_OF_PERICENTER":165.4918,"MEAN_ANOMALY":194.5945,"EPHEMERIS_TYPE":0,"CLASSIFICATION_TYPE":"U","NORAD_CAT_ID":59731,"ELEMENT_SET_NO":999,"REV_AT_EPOCH":10338,"BSTAR":1.0898339e-5,"MEAN_MOTION_DOT":3.8e-7,"MEAN_MOTION_DDOT":0}]
